$$SOE
2460721.500000000, A.D. 2025-Feb-15 00:00:00.0000, -3.329735474861755E+08, -2.483097263764012E+08, -4.319360184995502E+06,
2460728.500000000, A.D. 2025-Feb-22 00:00:00.0000, -3.261951982369943E+08, -2.568580532976643E+08, -4.146093923434585E+06,
2460735.500000000, A.D. 2025-Mar-01 00:00:00.0000, -3.191956315394335E+08, -2.652322466857266E+08, -3.970015738932192E+06,
2460742.500000000, A.D. 2025-Mar-08 00:00:00.0000, -3.119793145310194E+08, -2.734263973210228E+08, -3.791241912681729E+06,
2460749.500000000, A.D. 2025-Mar-15 00:00:00.0000, -3.045508805137825E+08, -2.814347089322301E+08, -3.609890953289017E+06,
2460756.500000000, A.D. 2025-Mar-22 00:00:00.0000, -2.969151282613176E+08, -2.892515029931055E+08, -3.426083268663853E+06,
2460763.500000000, A.D. 2025-Mar-29 00:00:00.0000, -2.890770197693874E+08, -2.968712257055709E+08, -3.239941144195497E+06,
2460770.500000000, A.D. 2025-Apr-05 00:00:00.0000, -2.810416761290770E+08, -3.042884540239375E+08, -3.051588800861090E+06,
2460777.500000000, A.D. 2025-Apr-12 00:00:00.0000, -2.728143734520311E+08, -3.114979006069168E+08, -2.861152348232463E+06,
2460784.500000000, A.D. 2025-Apr-19 00:00:00.0000, -2.644005390374268E+08, -3.184944185679120E+08, -2.668759687354729E+06,
2460791.500000000, A.D. 2025-Apr-26 00:00:00.0000, -2.558057475104570E+08, -3.252730062154475E+08, -2.474540405221671E+06,
2460798.500000000, A.D. 2025-May-03 00:00:00.0000, -2.470357168194731E+08, -3.318288117541534E+08, -2.278625670014262E+06,
2460805.500000000, A.D. 2025-May-10 00:00:00.0000, -2.380963040641139E+08, -3.381571379288155E+08, -2.081148129399687E+06,
2460812.500000000, A.D. 2025-May-17 00:00:00.0000, -2.289935011196924E+08, -3.442534466456381E+08, -1.882241819069624E+06,
2460819.500000000, A.D. 2025-May-24 00:00:00.0000, -2.197334298878611E+08, -3.501133636196480E+08, -1.682042102363974E+06,
2460826.500000000, A.D. 2025-May-31 00:00:00.0000, -2.103223367614821E+08, -3.557326827317270E+08, -1.480685654172748E+06,
2460833.500000000, A.D. 2025-Jun-07 00:00:00.0000, -2.007665867109100E+08, -3.611073688838492E+08, -1.278310353975952E+06,
2460840.500000000, A.D. 2025-Jun-14 00:00:00.0000, -1.910726593617036E+08, -3.662335600117605E+08, -1.075054925699413E+06,
2460847.500000000, A.D. 2025-Jun-21 00:00:00.0000, -1.812471458520765E+08, -3.711075715200858E+08, -8.710587035129666E+05,
2460854.500000000, A.D. 2025-Jun-28 00:00:00.0000, -1.712967433486020E+08, -3.757259013707636E+08, -6.664616664010882E+05,
2460861.500000000, A.D. 2025-Jul-05 00:00:00.0000, -1.612282487448186E+08, -3.800852336632102E+08, -4.614044261196554E+05,
2460868.500000000, A.D. 2025-Jul-12 00:00:00.0000, -1.510485527414492E+08, -3.841824415050345E+08, -2.560281250616312E+05,
2460875.500000000, A.D. 2025-Jul-19 00:00:00.0000, -1.407646341259559E+08, -3.880145897414038E+08, -5.047430844768882E+04,
2460882.500000000, A.D. 2025-Jul-26 00:00:00.0000, -1.303835540483171E+08, -3.915789375929906E+08, 1.551152051419914E+05,
2460889.500000000, A.D. 2025-Aug-02 00:00:00.0000, -1.199124502343394E+08, -3.948729411753795E+08, 3.605984504707456E+05,
2460896.500000000, A.D. 2025-Aug-09 00:00:00.0000, -1.093585311204242E+08, -3.978942559103433E+08, 5.658334361455441E+05,
2460903.500000000, A.D. 2025-Aug-16 00:00:00.0000, -9.872906984104457E+07, -4.006407388884935E+08, 7.706782467362583E+05,
2460910.500000000, A.D. 2025-Aug-23 00:00:00.0000, -8.803139778492890E+07, -4.031104511631228E+08, 9.749911011545360E+05,
2460917.500000000, A.D. 2025-Aug-30 00:00:00.0000, -7.727289739979683E+07, -4.053016592575844E+08, 1.178630395617872E+06,
2460924.500000000, A.D. 2025-Sep-06 00:00:00.0000, -6.646099567259546E+07, -4.072128348820380E+08, 1.381454943135977E+06,
2460931.500000000, A.D. 2025-Sep-13 00:00:00.0000, -5.560315996416187E+07, -4.088426553381844E+08, 1.583324359832793E+06,
2460938.500000000, A.D. 2025-Sep-20 00:00:00.0000, -4.470689293276425E+07, -4.101900062540053E+08, 1.784099163404077E+06,
2460945.500000000, A.D. 2025-Sep-27 00:00:00.0000, -3.377972549666906E+07, -4.112539835367500E+08, 1.983640740955889E+06,
2460952.500000000, A.D. 2025-Oct-04 00:00:00.0000, -2.282920986195521E+07, -4.120338940045252E+08, 2.181811415381908E+06,
2460959.500000000, A.D. 2025-Oct-11 00:00:00.0000, -1.186291299873119E+07, -4.125292556385185E+08, 2.378474567512184E+06,
2460966.500000000, A.D. 2025-Oct-18 00:00:00.0000, -8.884102915157597E+05, -4.127397977292529E+08, 2.573494765500218E+06,
2460973.500000000, A.D. 2025-Oct-25 00:00:00.0000, 1.008672076653012E+07, -4.126654609048428E+08, 2.766737889302760E+06,
2460980.500000000, A.D. 2025-Nov-01 00:00:00.0000, 2.105490686632165E+07, -4.123063970251175E+08, 2.958071247508347E+06,
2460987.500000000, A.D. 2025-Nov-08 00:00:00.0000, 3.200858518889866E+07, -4.116629689736136E+08, 3.147363680357873E+06,
2460994.500000000, A.D. 2025-Nov-15 00:00:00.0000, 4.294020986428899E+07, -4.107357504079816E+08, 3.334485630298555E+06,
2461001.500000000, A.D. 2025-Nov-22 00:00:00.0000, 5.384225897700711E+07, -4.095255252514152E+08, 3.519309160899639E+06,
2461008.500000000, A.D. 2025-Nov-29 00:00:00.0000, 6.470724195582765E+07, -4.080332857928777E+08, 3.701708030721515E+06,
2461015.500000000, A.D. 2025-Dec-06 00:00:00.0000, 7.552770506127113E+07, -4.062602295341753E+08, 3.881558019609571E+06,
2461022.500000000, A.D. 2025-Dec-13 00:00:00.0000, 8.629623539624549E+07, -4.042077581557075E+08, 4.058737191785872E+06,
2461029.500000000, A.D. 2025-Dec-20 00:00:00.0000, 9.700546692575002E+07, -4.018774775812946E+08, 4.233125858675212E+06,
2461036.500000000, A.D. 2025-Dec-27 00:00:00.0000, 1.076480874236952E+08, -3.992711965561396E+08, 4.404606551735282E+06,
2461043.500000000, A.D. 2026-Jan-03 00:00:00.0000, 1.182168448782321E+08, -3.963909243577562E+08, 4.573064088904232E+06,
2461050.500000000, A.D. 2026-Jan-10 00:00:00.0000, 1.287045534557835E+08, -3.932388683210761E+08, 4.738385669088006E+06,
2461057.500000000, A.D. 2026-Jan-17 00:00:00.0000, 1.391040992477582E+08, -3.898174312701758E+08, 4.900460965671211E+06,
2461064.500000000, A.D. 2026-Jan-24 00:00:00.0000, 1.494084458713065E+08, -3.861292088346911E+08, 5.059182213394791E+06,
2461071.500000000, A.D. 2026-Jan-31 00:00:00.0000, 1.596106399431773E+08, -3.821769866607579E+08, 5.214444285463423E+06,
2461078.500000000, A.D. 2026-Feb-07 00:00:00.0000, 1.697038164850438E+08, -3.779637375792583E+08, 5.366144750406086E+06,
2461085.500000000, A.D. 2026-Feb-14 00:00:00.0000, 1.796812045098260E+08, -3.734926187550250E+08, 5.514183884467959E+06,
2461092.500000000, A.D. 2026-Feb-21 00:00:00.0000, 1.895361331714285E+08, -3.687669682495679E+08, 5.658464651645094E+06,
2461099.500000000, A.D. 2026-Feb-28 00:00:00.0000, 1.992620373862861E+08, -3.637902998525041E+08, 5.798892845555350E+06,
2461106.500000000, A.D. 2026-Mar-07 00:00:00.0000, 2.088524608607207E+08, -3.585662981376231E+08, 5.935377422660768E+06,
2461113.500000000, A.D. 2026-Mar-14 00:00:00.0000, 2.183010592938278E+08, -3.530988160803207E+08, 6.067830581411734E+06,
2461120.500000000, A.D. 2026-Mar-21 00:00:00.0000, 2.276016055350691E+08, -3.473918723439121E+08, 6.196167660575300E+06,
2461127.500000000, A.D. 2026-Mar-28 00:00:00.0000, 2.367479946839688E+08, -3.414496472134355E+08, 6.320307125270158E+06,
2461134.500000000, A.D. 2026-Apr-04 00:00:00.0000, 2.457342485248013E+08, -3.352764781498570E+08, 6.440170617343351E+06,
2461141.500000000, A.D. 2026-Apr-11 00:00:00.0000, 2.545545195670928E+08, -3.288768553317513E+08, 6.555683015733659E+06,
2461148.500000000, A.D. 2026-Apr-18 00:00:00.0000, 2.632030948485675E+08, -3.222554171984242E+08, 6.666772491874248E+06,
2461155.500000000, A.D. 2026-Apr-25 00:00:00.0000, 2.716743995439345E+08, -3.154169459871471E+08, 6.773370557331190E+06,
2461162.500000000, A.D. 2026-May-02 00:00:00.0000, 2.799630004077932E+08, -3.083663633011000E+08, 6.875412098538786E+06,
2461169.500000000, A.D. 2026-May-09 00:00:00.0000, 2.880636091744037E+08, -3.011087257804375E+08, 6.972835381784692E+06,
2461176.500000000, A.D. 2026-May-16 00:00:00.0000, 2.959710862920076E+08, -2.936492207444294E+08, 7.065582005181357E+06,
2461183.500000000, A.D. 2026-May-23 00:00:00.0000, 3.036804450445561E+08, -2.859931607903379E+08, 7.153596876764759E+06,
2461190.500000000, A.D. 2026-May-30 00:00:00.0000, 3.111868539825295E+08, -2.781459770387321E+08, 7.236828435761601E+06,
2461197.500000000, A.D. 2026-Jun-06 00:00:00.0000, 3.184856373436765E+08, -2.701132143061579E+08, 7.315228878438219E+06,
2461204.500000000, A.D. 2026-Jun-13 00:00:00.0000, 3.255722771284151E+08, -2.619005280113486E+08, 7.388754068183497E+06,
2461211.500000000, A.D. 2026-Jun-20 00:00:00.0000, 3.324424163299389E+08, -2.535136798949834E+08, 7.457363414745897E+06,
2461218.500000000, A.D. 2026-Jun-27 00:00:00.0000, 3.390918616222168E+08, -2.449585329001202E+08, 7.521019850539148E+06,
2461225.500000000, A.D. 2026-Jul-04 00:00:00.0000, 3.455165855070776E+08, -2.362410459952196E+08, 7.579689840541989E+06,
2461232.500000000, A.D. 2026-Jul-11 00:00:00.0000, 3.517127281757914E+08, -2.273672690783090E+08, 7.633343391543970E+06,
2461239.500000000, A.D. 2026-Jul-18 00:00:00.0000, 3.576765991797262E+08, -2.183433379430778E+08, 7.681954054180935E+06,
2461246.500000000, A.D. 2026-Jul-25 00:00:00.0000, 3.634046789365730E+08, -2.091754693107898E+08, 7.725498915622398E+06,
2461253.500000000, A.D. 2026-Aug-01 00:00:00.0000, 3.688936201219531E+08, -1.998699559826428E+08, 7.763958574406162E+06,
2461260.500000000, A.D. 2026-Aug-08 00:00:00.0000, 3.741402491623961E+08, -1.904331621540565E+08, 7.797317074536406E+06,
2461267.500000000, A.D. 2026-Aug-15 00:00:00.0000, 3.791415682466980E+08, -1.808715184448644E+08, 7.825561797487378E+06,
2461274.500000000, A.D. 2026-Aug-22 00:00:00.0000, 3.838947570990399E+08, -1.711915154293984E+08, 7.848683482070848E+06,
2461281.500000000, A.D. 2026-Aug-29 00:00:00.0000, 3.883971722289183E+08, -1.613996970466331E+08, 7.866676470321022E+06,
2461288.500000000, A.D. 2026-Sep-05 00:00:00.0000, 3.926463457921842E+08, -1.515026567645017E+08, 7.879538749212421E+06,
$$EOE